start=new Date('2022-09-13T00:00:00.000Z').valueOf();
sats=[{"ARG_OF_PERICENTER":"61.7144","MEAN_ANOMALY":"315.7102","PERIOD":"95.439","MEAN_MOTION_DOT":"0.00033473","EPOCH":"2022-09-12T22:00:00.999936","RA_OF_ASC_NODE":"87.3191","OBJECT_NAME":"STARLINK-3958","COUNTRY_CODE":"US","CLASSIFICATION_TYPE":"U","ECCENTRICITY":"0.00018390","MEAN_MOTION":"15.08810251","GP_ID":"212433784","MEAN_ELEMENT_THEORY":"SGP4","INCLINATION":"53.2158","MEAN_MOTION_DDOT":"0.0000000000000","TIME_SYSTEM":"UTC","OBJECT_ID":"2022-051C","EPHEMERIS_TYPE":"0","TLE_LINE2":"2 52535  53.2158  87.3191 0001839  61.7144 315.7102 15.08810251  1303","REF_FRAME":"TEME","DECAY_DATE":null,"CENTER_NAME":"EARTH","REV_AT_EPOCH":"130","SEMIMAJOR_AXIS":"6917.971","ELEMENT_SET_NO":"999","SITE":"AFWTR","PERIAPSIS":"538.564","LAUNCH_DATE":"2022-05-13","OBJECT_TYPE":"PAYLOAD","BSTAR":"0.00211300000000","APOAPSIS":"541.109","FILE":"3570509","NORAD_CAT_ID":"52535","RCS_SIZE":"LARGE","TLE_LINE1":"1 52535U 22051C   22255.91667824  .00033473  00000-0  21130-2 0  9998"},{"PERIOD":"95.438","MEAN_MOTION_DOT":"0.00033270","MEAN_ANOMALY":"335.6432","ARG_OF_PERICENTER":"61.7750","RA_OF_ASC_NODE":"87.3201","EPOCH":"2022-09-12T22:00:00.999936","ECCENTRICITY":"0.00017690","MEAN_MOTION":"15.08825280","CLASSIFICATION_TYPE":"U","COUNTRY_CODE":"US","OBJECT_NAME":"STARLINK-3964","TIME_SYSTEM":"UTC","MEAN_MOTION_DDOT":"0.0000000000000","MEAN_ELEMENT_THEORY":"SGP4","INCLINATION":"53.2165","GP_ID":"212434020","DECAY_DATE":null,"REF_FRAME":"TEME","TLE_LINE2":"2 52536  53.2165  87.3201 0001769  61.7750 335.6432 15.08825280  1304","EPHEMERIS_TYPE":"0","OBJECT_ID":"2022-051D","SITE":"AFWTR","ELEMENT_SET_NO":"999","PERIAPSIS":"538.567","REV_AT_EPOCH":"130","CENTER_NAME":"EARTH","SEMIMAJOR_AXIS":"6917.925","APOAPSIS":"541.014","BSTAR":"0.00209950000000","OBJECT_TYPE":"PAYLOAD","LAUNCH_DATE":"2022-05-13","RCS_SIZE":"LARGE","TLE_LINE1":"1 52536U 22051D   22255.91667824  .00033270  00000-0  20995-2 0  9992","FILE":"3570509","NORAD_CAT_ID":"52536"},{"BSTAR":"0.00199930000000","OBJECT_TYPE":"PAYLOAD","LAUNCH_DATE":"2022-05-13","APOAPSIS":"540.991","FILE":"3570509","NORAD_CAT_ID":"52537","TLE_LINE1":"1 52537U 22051E   22255.91667824  .00031655  00000-0  19993-2 0  9994","RCS_SIZE":"LARGE","EPHEMERIS_TYPE":"0","OBJECT_ID":"2022-051E","REF_FRAME":"TEME","DECAY_DATE":null,"TLE_LINE2":"2 52537  53.2174  87.3241 0001700  65.3469 352.0686 15.08817406  1306","SEMIMAJOR_AXIS":"6917.949","REV_AT_EPOCH":"130","CENTER_NAME":"EARTH","PERIAPSIS":"538.638","ELEMENT_SET_NO":"999","SITE":"AFWTR","COUNTRY_CODE":"US","OBJECT_NAME":"STARLINK-3897","MEAN_MOTION":"15.08817406","ECCENTRICITY":"0.00017000","CLASSIFICATION_TYPE":"U","INCLINATION":"53.2174","MEAN_ELEMENT_THEORY":"SGP4","GP_ID":"212434049","TIME_SYSTEM":"UTC","MEAN_MOTION_DDOT":"0.0000000000000","MEAN_ANOMALY":"352.0686","ARG_OF_PERICENTER":"65.3469","MEAN_MOTION_DOT":"0.00031655","PERIOD":"95.439","RA_OF_ASC_NODE":"87.3241","EPOCH":"2022-09-12T22:00:00.999936"},{"TLE_LINE1":"1 52538U 22051F   22255.91667824  .00033735  00000-0  21288-2 0  9996","RCS_SIZE":"LARGE","FILE":"3570509","NORAD_CAT_ID":"52538","APOAPSIS":"540.945","BSTAR":"0.00212880000000","OBJECT_TYPE":"PAYLOAD","LAUNCH_DATE":"2022-05-13","PERIAPSIS":"538.673","ELEMENT_SET_NO":"999","SITE":"AFWTR","SEMIMAJOR_AXIS":"6917.944","CENTER_NAME":"EARTH","REV_AT_EPOCH":"130","REF_FRAME":"TEME","DECAY_DATE":null,"TLE_LINE2":"2 52538  53.2173  87.3179 0001642  57.6826  39.7342 15.08819148  1305","EPHEMERIS_TYPE":"0","OBJECT_ID":"2022-051F","TIME_SYSTEM":"UTC","MEAN_MOTION_DDOT":"0.0000000000000","MEAN_ELEMENT_THEORY":"SGP4","INCLINATION":"53.2173","GP_ID":"212434712","MEAN_MOTION":"15.08819148","ECCENTRICITY":"0.00016420","CLASSIFICATION_TYPE":"U","COUNTRY_CODE":"US","OBJECT_NAME":"STARLINK-3933","RA_OF_ASC_NODE":"87.3179","EPOCH":"2022-09-12T22:00:00.999936","MEAN_MOTION_DOT":"0.00033735","PERIOD":"95.439","MEAN_ANOMALY":"39.7342","ARG_OF_PERICENTER":"57.6826"},{"TLE_LINE1":"1 52539U 22051G   22255.91667824 -.00015294  00000-0 -94467-3 0  9999","RCS_SIZE":"LARGE","FILE":"3570509","NORAD_CAT_ID":"52539","APOAPSIS":"540.950","OBJECT_TYPE":"PAYLOAD","LAUNCH_DATE":"2022-05-13","BSTAR":"-0.00094467000000","PERIAPSIS":"538.495","ELEMENT_SET_NO":"999","SITE":"AFWTR","SEMIMAJOR_AXIS":"6917.857","CENTER_NAME":"EARTH","REV_AT_EPOCH":"130","TLE_LINE2":"2 52539  53.2161  87.3235 0001774  60.4261  17.0137 15.08847551  1307","REF_FRAME":"TEME","DECAY_DATE":null,"OBJECT_ID":"2022-051G","EPHEMERIS_TYPE":"0","MEAN_MOTION_DDOT":"0.0000000000000","TIME_SYSTEM":"UTC","GP_ID":"212434201","INCLINATION":"53.2161","MEAN_ELEMENT_THEORY":"SGP4","CLASSIFICATION_TYPE":"U","MEAN_MOTION":"15.08847551","ECCENTRICITY":"0.00017740","OBJECT_NAME":"STARLINK-3757","COUNTRY_CODE":"US","EPOCH":"2022-09-12T22:00:00.999936","RA_OF_ASC_NODE":"87.3235","MEAN_MOTION_DOT":"-0.00015294","PERIOD":"95.437","ARG_OF_PERICENTER":"60.4261","MEAN_ANOMALY":"17.0137"},{"MEAN_ANOMALY":"103.0803","ARG_OF_PERICENTER":"54.3326","MEAN_MOTION_DOT":"0.00036795","PERIOD":"95.439","RA_OF_ASC_NODE":"87.3162","EPOCH":"2022-09-12T22:00:00.999936","COUNTRY_CODE":"US","OBJECT_NAME":"STARLINK-3940","MEAN_MOTION":"15.08818648","ECCENTRICITY":"0.00017010","CLASSIFICATION_TYPE":"U","MEAN_ELEMENT_THEORY":"SGP4","INCLINATION":"53.2169","GP_ID":"212433604","TIME_SYSTEM":"UTC","MEAN_MOTION_DDOT":"0.0000000000000","EPHEMERIS_TYPE":"0","OBJECT_ID":"2022-051H","REF_FRAME":"TEME","DECAY_DATE":null,"TLE_LINE2":"2 52540  53.2169  87.3162 0001701  54.3326 103.0803 15.08818648  1301","SEMIMAJOR_AXIS":"6917.946","CENTER_NAME":"EARTH","REV_AT_EPOCH":"130","PERIAPSIS":"538.634","ELEMENT_SET_NO":"999","SITE":"AFWTR","BSTAR":"0.00231930000000","OBJECT_TYPE":"PAYLOAD","LAUNCH_DATE":"2022-05-13","APOAPSIS":"540.987","FILE":"3570509","NORAD_CAT_ID":"52540","TLE_LINE1":"1 52540U 22051H   22255.91667824  .00036795  00000-0  23193-2 0  9995","RCS_SIZE":"LARGE"},{"BSTAR":"0.00167150000000","OBJECT_TYPE":"PAYLOAD","LAUNCH_DATE":"2022-05-13","APOAPSIS":"541.077","FILE":"3570509","NORAD_CAT_ID":"52541","TLE_LINE1":"1 52541U 22051J   22255.91667824  .00026395  00000-0  16715-2 0  9993","RCS_SIZE":"LARGE","OBJECT_ID":"2022-051J","EPHEMERIS_TYPE":"0","REF_FRAME":"TEME","DECAY_DATE":null,"TLE_LINE2":"2 52541  53.2132  92.3193 0001807  61.4347 268.4647 15.08813459  1308","SEMIMAJOR_AXIS":"6917.962","REV_AT_EPOCH":"130","CENTER_NAME":"EARTH","PERIAPSIS":"538.576","ELEMENT_SET_NO":"999","SITE":"AFWTR","COUNTRY_CODE":"US","OBJECT_NAME":"STARLINK-3845","MEAN_MOTION":"15.08813459","ECCENTRICITY":"0.00018070","CLASSIFICATION_TYPE":"U","INCLINATION":"53.2132","MEAN_ELEMENT_THEORY":"SGP4","GP_ID":"212433633","TIME_SYSTEM":"UTC","MEAN_MOTION_DDOT":"0.0000000000000","MEAN_ANOMALY":"268.4647","ARG_OF_PERICENTER":"61.4347","MEAN_MOTION_DOT":"0.00026395","PERIOD":"95.439","RA_OF_ASC_NODE":"92.3193","EPOCH":"2022-09-12T22:00:00.999936"},{"BSTAR":"0.00239000000000","LAUNCH_DATE":"2022-05-13","OBJECT_TYPE":"PAYLOAD","APOAPSIS":"541.042","FILE":"3570509","NORAD_CAT_ID":"52542","TLE_LINE1":"1 52542U 22051K   22255.91667824  .00037934  00000-0  23900-2 0  9999","RCS_SIZE":"LARGE","OBJECT_ID":"2022-051K","EPHEMERIS_TYPE":"0","REF_FRAME":"TEME","DECAY_DATE":null,"TLE_LINE2":"2 52542  53.2177  87.3014 0001789  52.1300 125.2863 15.08820639  1307","SEMIMAJOR_AXIS":"6917.940","REV_AT_EPOCH":"130","CENTER_NAME":"EARTH","PERIAPSIS":"538.567","ELEMENT_SET_NO":"999","SITE":"AFWTR","COUNTRY_CODE":"US","OBJECT_NAME":"STARLINK-3937","MEAN_MOTION":"15.08820639","ECCENTRICITY":"0.00017890","CLASSIFICATION_TYPE":"U","MEAN_ELEMENT_THEORY":"SGP4","INCLINATION":"53.2177","GP_ID":"212434491","TIME_SYSTEM":"UTC","MEAN_MOTION_DDOT":"0.0000000000000","MEAN_ANOMALY":"125.2863","ARG_OF_PERICENTER":"52.1300","MEAN_MOTION_DOT":"0.00037934","PERIOD":"95.439","RA_OF_ASC_NODE":"87.3014","EPOCH":"2022-09-12T22:00:00.999936"},{"TIME_SYSTEM":"UTC","MEAN_MOTION_DDOT":"0.0000000000000","MEAN_ELEMENT_THEORY":"SGP4","INCLINATION":"53.2163","GP_ID":"212433785","ECCENTRICITY":"0.00016950","MEAN_MOTION":"15.08841359","CLASSIFICATION_TYPE":"U","COUNTRY_CODE":"US","OBJECT_NAME":"STARLINK-3926","RA_OF_ASC_NODE":"87.3224","EPOCH":"2022-09-12T22:00:00.999936","PERIOD":"95.437","MEAN_MOTION_DOT":"-0.00010982","MEAN_ANOMALY":"67.1268","ARG_OF_PERICENTER":"50.3043","RCS_SIZE":"LARGE","TLE_LINE1":"1 52543U 22051L   22255.91667824 -.00010982  00000-0 -67289-3 0  9995","FILE":"3570509","NORAD_CAT_ID":"52543","APOAPSIS":"540.914","BSTAR":"-0.00067289000000","OBJECT_TYPE":"PAYLOAD","LAUNCH_DATE":"2022-05-13","ELEMENT_SET_NO":"999","SITE":"AFWTR","PERIAPSIS":"538.569","CENTER_NAME":"EARTH","REV_AT_EPOCH":"130","SEMIMAJOR_AXIS":"6917.876","DECAY_DATE":null,"REF_FRAME":"TEME","TLE_LINE2":"2 52543  53.2163  87.3224 0001695  50.3043  67.1268 15.08841359  1301","OBJECT_ID":"2022-051L","EPHEMERIS_TYPE":"0"},{"SITE":"AFWTR","ELEMENT_SET_NO":"999","PERIAPSIS":"538.602","CENTER_NAME":"EARTH","REV_AT_EPOCH":"130","SEMIMAJOR_AXIS":"6917.942","DECAY_DATE":null,"REF_FRAME":"TEME","TLE_LINE2":"2 52544  53.2165  92.3226 0001742  53.9687 315.9552 15.08819683  1303","OBJECT_ID":"2022-051M","EPHEMERIS_TYPE":"0","RCS_SIZE":"LARGE","TLE_LINE1":"1 52544U 22051M   22255.91667824  .00026808  00000-0  16970-2 0  9998","FILE":"3570509","NORAD_CAT_ID":"52544","APOAPSIS":"541.013","BSTAR":"0.00169700000000","OBJECT_TYPE":"PAYLOAD","LAUNCH_DATE":"2022-05-13","RA_OF_ASC_NODE":"92.3226","EPOCH":"2022-09-12T22:00:00.999936","PERIOD":"95.439","MEAN_MOTION_DOT":"0.00026808","MEAN_ANOMALY":"315.9552","ARG_OF_PERICENTER":"53.9687","TIME_SYSTEM":"UTC","MEAN_MOTION_DDOT":"0.0000000000000","INCLINATION":"53.2165","MEAN_ELEMENT_THEORY":"SGP4","GP_ID":"212434021","ECCENTRICITY":"0.00017420","MEAN_MOTION":"15.08819683","CLASSIFICATION_TYPE":"U","COUNTRY_CODE":"US","OBJECT_NAME":"STARLINK-3944"}];
